#dP2022  4 22  0  0  0.00000000      96 __u+U ITR14 FIT  IAC
## 2206 432000.00000000   900.00000000 59691 0.0000000000000
+  127   C01C02C03C04C05C06C07C08C09C10C11C12C13C14C16C19C20
+        C21C22C23C24C25C26C27C28C29C30C32C33C34C35C36C37C38
+        C39C40C41C42C43C44C45C46C60E01E02E03E04E05E07E08E09
+        E10E11E12E13E14E15E18E19E21E24E25E26E27E30E31E33E34
+        E36G01G02G03G04G05G06G07G08G09G10G11G12G13G14G15G16
+        G17G18G19G20G21G22G23G24G25G26G27G28G29G30G31G32J02
+        J03J07R01R02R03R04R05R06R07R08R09R10R11R12R13R14R15
+        R17R18R19R20R21R22R23R24  0  0  0  0  0  0  0  0  0
++        16 15 15 15 17  9  9 10  9  9  9  9  9  9  9  8  8
++         8  8  7  7  7  7  7  7  7  7  7  7  7  8  8  7  9
++         9  8  7  8  7  7  8  8 15  4  5  5  4  4  6  6  4
++         5  4  5  5  4  4  5  5  4  4  5  5  4  5  4  5  5
++         4  4  4  4  4  4  4  4  4  4  4  4  4  4  4  4  4
++         0  4  4  4  5  4  4  4  4  4  4  5  4  4  4  4  8
++         9 15  7  6  6  6  6 13  6  6  6 13  8  6  7  6  6
++         6  6  7  7  6  8 13  6  0  0  0  0  0  0  0  0  0
%c M  cc GPS ccc cccc cccc cccc cccc ccccc ccccc ccccc ccccc
%c cc cc ccc ccc cccc cccc cccc cccc ccccc ccccc ccccc ccccc
%f  0.0000000  0.000000000  0.00000000000  0.000000000000000
%f  0.0000000  0.000000000  0.00000000000  0.000000000000000
%i    0    0    0    0      0      0      0      0         0
%i    0    0    0    0      0      0      0      0         0
/* INFORMATION & ANALYSIS CENTER (IAC)            RAPID DATA
/* S/V CLOCKS ARE ALIGNED TO GNSS TIME                      
/* G:C1WC2W R:C1PC2P E:C1XC5X C:C2IC6I J:C1CC2S             
/* PCV:IGS14_2196 OL/AL:FES2004  NONE     YN ORB:CoN CLK:CoN
*  2022 04 22  4 45  0.00000000
PC01 -34346.579526  24475.778367    -72.707751    110.201392
PC02   4474.580067  41851.199817  -1323.160027    102.435985
PC03 -14757.215055  39456.135481   -813.076063   -562.102977
PC04 -39601.220140  14481.616514    356.691559    139.701000
PC05  21940.079633  35945.407220  -1043.786197   -415.811720
PC06  -3872.285980  37629.152563 -18391.789710   -159.314623
PC07 -10860.305213  25198.268397  31996.627726    -70.887718
PC08 -20034.142801  33899.853734 -15262.078537    272.594929
PC09   2510.378448  40841.715265  -8623.536324   -718.777142
PC10  -1129.962025  27078.388458  32577.674103    135.391564
PC11  16546.900650   6923.950113 -21325.089066    306.677621
PC12  12930.540289  23121.974230  -8752.018486   -625.734255
PC13 -11949.078234  33898.826793 -22118.834227    -53.823699
PC14  27512.033219   4307.085883   2291.973957    461.199958
PC16  -5030.392766  36237.521681 -20559.498055    122.489033
PC19 -25387.031335   2453.877794 -11265.034558    876.220086
PC20 -25687.430119  -9394.325870   5469.327094   -886.485537
PC21  10567.336957  16365.961268 -19966.826006   -156.041943
PC22 -10342.060148  13380.031060 -22184.524587   -970.008237
PC23  15840.615915 -22442.452349  -4908.873718   -931.690658
PC24  15288.532210   6990.578951  22259.579860   -955.793307
PC25  22034.764989 -12457.608249  11717.921349   -747.485439
PC26   1087.540179  19946.838289  19487.475990    748.350845
PC27  -8127.632983 -26707.307463     85.726690    711.617584
PC28   4726.203298 -22429.226973 -15918.799937     58.113377
PC29 -15049.872232   5137.411986  22920.727975    544.626574
PC30 -16936.447132 -15629.900257  15744.062817    497.330548
PC32 -10587.112695 -16318.950258  20025.682061   -962.845963
PC33  25430.588229  -2588.602680  11232.249600   -966.915040
PC34  17120.777966  14651.610140 -16457.409640   -420.170240
PC35  -4660.867773  21967.012050  16531.037190    239.926233
PC36 -22324.542559  11532.082206 -12122.515862   -963.925631
PC37    409.536842 -20501.010067 -18906.659607   -920.481327
PC38 -23873.121636  33976.273591  -7702.008344    226.866727
PC39  -7817.767305  32308.886995 -25811.698297     34.950855
PC40 -15613.803119  18578.598991  34432.617901    262.868907
PC41  10827.544299 -13289.157331  22078.678559   -966.670084
PC42  25320.061755   9882.906381  -6324.364384   -955.031241
PC43  15427.842567  -4388.847045 -22846.761580   -928.520856
PC44   8963.394313  26406.139851     62.679339    635.621706
PC45 -15677.953210  22509.877860   5185.208775    737.655277
PC46 -16243.203542  -5451.102012 -22033.267259   -284.867113
PC60   7328.463513  41518.219088    336.169579     -0.664203
PE01  28614.386167  -6093.636404   4473.220531   -621.053502
PE02 -28628.595901   6206.045774  -4323.483736    294.388855
PE03 -22633.782052  -2281.164810 -18927.959054   -550.544195
PE04   9066.489676 -14679.778985  24063.630989  -1011.813714
PE05 -23163.544372 -18249.005798  -2551.830938   -188.579323
PE07  10231.569235  23352.870358 -15034.091245   -661.035127
PE08  -8613.301186  14833.840410 -24116.842277   -516.454939
PE09 -10481.774997 -23262.233361  15002.868213   -492.629618
PE10   6496.037889 -28857.115109  -1184.773461   -508.240491
PE11   -258.689815 -28200.375851   9018.411559   3889.143354
PE12  12063.444269 -24887.866150 -10586.213739   4650.801542
PE13   -143.405388  28373.969164  -8406.579451    428.186431
PE14   7209.804482 -19771.820441 -21486.490352  -1822.637374
PE15 -12034.863187  24807.786727  10753.105182    750.205052
PE18   8070.421201  24425.083005   9877.286574  -1536.192320
PE19  23451.101420   4643.317676  17465.161076  -3420.297174
PE21  21132.011392   7022.700086  19494.493493   -729.866778
PE24    315.722766 -17334.524243 -24004.377409   -574.242602
PE25 -20934.422104  -7199.295007 -19651.141318   -571.269537
PE26  12303.190995  14339.091862 -22783.044887  -1058.395980
PE27   1077.112124  16981.651021  24220.774515   -281.771427
PE30 -20327.493851  16493.579923  13821.243523   -450.344554
PE31  19421.688799 -16854.754434 -14650.915906   -495.448411
PE33  16770.015769  -6652.358655 -23468.429906   -457.381195
PE34 -16757.910010   6896.125081  23396.487061   -513.295950
PE36 -11737.508399 -15269.488807  22482.218390   -363.108321
PG01 -13664.790824  20490.584419   9167.999557    379.523212
PG02  15239.812690   -722.818332 -21105.247884   -653.207378
PG03 -19231.531375  12875.498654 -13032.464354   -216.267156
PG04  -9528.205335  12164.394643 -21585.148333   -173.891205
PG05  26120.274306  -4952.996110  -1919.276492    -79.176597
PG06   8126.999601  15970.507270 -19512.777850    275.549268
PG07  -4123.407818  25329.497259   6125.408263    320.834567
PG08 -16574.902460   3050.273547  20574.875987    -64.958575
PG09   1009.040794  19780.625842 -17744.817509   -342.101616
PG10 -10209.749078 -12662.964758  21200.231362   -387.594581
PG11  15787.603505    555.087524 -21350.586411    -35.925965
PG12  22461.705719  -9912.763582 -10238.110452   -204.065371
PG13  18848.430601   6852.816012  17347.441948    298.429297
PG14   8535.683954  13785.764452  21045.761224   -104.140401
PG15  16073.267168  -5720.005189  20016.275515    -67.061251
PG16 -26160.477878  -1310.300498  -5967.576568   -494.028923
PG17      0.000000      0.000000      0.000000 999999.999999
PG18   5306.343557 -25408.933604   5343.863024    189.415568
PG19  17068.653615  20246.387716  -3424.561726    147.559977
PG20  23700.015075    350.217683 -11737.784303    515.712639
PG21 -16048.818997  11110.046582  18346.830840    160.631483
PG22 -18207.326581 -18694.821712  -5024.003920    247.207393
PG23   2412.498302 -15607.242598  21331.542275    -16.730442
PG24  14325.505753 -17819.580857  12863.915569    253.125286
PG25  10046.923160 -15768.213043 -19046.256990    315.133868
PG26 -20515.134987  -6680.831207 -15775.997791    200.380485
PG27 -20712.554571  -9081.435929  14031.573572    188.589949
PG28  16717.718844  10726.358912  18033.496489    368.771125
PG29   1167.835620 -19044.668514 -18502.694977   -505.708157
PG30   2478.038361  22627.556228  13556.700829   -524.842009
PG31 -10393.160293 -13514.579447 -20376.418037   -174.465669
PG32 -16319.645204 -20954.334852   2491.811732   -110.623238
PJ02 -30419.187382  27214.523588  15650.743388     -2.911059
PJ03 -26423.197946  25463.428059  25813.019281     -1.679532
PJ07 -25363.864193  33675.854637    -29.391037     -0.024452
PR01 -23783.390303  -9189.060455   -414.104870      8.008675
PR02 -17967.149206   1502.109533 -18023.734693    516.254584
PR03  -1805.484486  11026.688041 -22876.785561     55.351697
PR04  15119.759058  14070.291907 -14930.375243    137.900036
PR05  23618.108751   9522.690875   1285.104201     91.583812
PR06  17148.791269  -2904.921988  18647.334681    -44.429749
PR07    970.923823 -11371.303657  22860.766738     34.153823
PR08 -15203.426482 -14128.713610  14908.212630    -64.736182
PR09  20938.286384 -14145.463713   3779.210633     51.078685
PR10  13549.886956 -17907.827850 -12038.448546    -81.708719
PR11  -2226.890846 -11778.170313 -22509.260793     40.616987
PR12 -17118.118018   1792.065038 -18811.557386     18.050561
PR13 -21086.993560  13440.112802  -5058.038520    -21.236403
PR14 -12583.278532  17798.681220  13244.117000     76.786948
PR15   2947.860962  11402.512673  22642.247462     96.661703
PR17  -1764.322818  23429.372672   9974.634372    519.633155
PR18   5750.830703  23856.953949  -6841.219582    114.372341
PR19   9803.604533  13182.593439 -19515.834586   -186.274777
PR20   9100.937362  -8851.621601 -22129.668566    -69.104726
PR21   1162.679990 -23974.115084  -8612.241360   -295.262596
PR22  -5924.266756 -23650.100924   7659.880505   -178.441531
PR23 -10647.267351  -7053.867775  22070.401861    -38.030895
PR24  -9162.095409   9791.762144  21712.722628     90.219277
EOF
